CCSDS_OMM_VERS = 2.0
CREATION_DATE  = 
ORIGINATOR     = 

OBJECT_NAME    = SL-14 R/B
OBJECT_ID      = 1986-046B
CENTER_NAME    = EARTH
REF_FRAME      = TEME
TIME_SYSTEM    = UTC
MEAN_ELEMENT_THEORY = SGP/SGP4

EPOCH          = 2025-11-20T08:25:09.144192
MEAN_MOTION    = 14.85452790
ECCENTRICITY   = .0021946
INCLINATION    = 82.4825
RA_OF_ASC_NODE = 183.4574
ARG_OF_PERICENTER = 226.9972
MEAN_ANOMALY   = 132.9405

EPHEMERIS_TYPE = 0
CLASSIFICATION_TYPE = U
NORAD_CAT_ID   = 16792
ELEMENT_SET_NO = 999
REV_AT_EPOCH   = 11017
BSTAR          = .57472E-4
MEAN_MOTION_DOT = .521E-5
MEAN_MOTION_DDOT = 0

CCSDS_OMM_VERS = 2.0
CREATION_DATE  = 
ORIGINATOR     = 

OBJECT_NAME    = SL-14 R/B
OBJECT_ID      = 1986-055B
CENTER_NAME    = EARTH
REF_FRAME      = TEME
TIME_SYSTEM    = UTC
MEAN_ELEMENT_THEORY = SGP/SGP4

EPOCH          = 2025-11-20T17:53:32.813088
MEAN_MOTION    = 14.85498440
ECCENTRICITY   = .001841
INCLINATION    = 82.5219
RA_OF_ASC_NODE = 229.0364
ARG_OF_PERICENTER = 337.3222
MEAN_ANOMALY   = 38.9610

EPHEMERIS_TYPE = 0
CLASSIFICATION_TYPE = U
NORAD_CAT_ID   = 16882
ELEMENT_SET_NO = 999
REV_AT_EPOCH   = 10319
BSTAR          = .70965E-4
MEAN_MOTION_DOT = .638E-5
MEAN_MOTION_DDOT = 0

CCSDS_OMM_VERS = 2.0
CREATION_DATE  = 
ORIGINATOR     = 

OBJECT_NAME    = AJISAI (EGS)
OBJECT_ID      = 1986-061A
CENTER_NAME    = EARTH
REF_FRAME      = TEME
TIME_SYSTEM    = UTC
MEAN_ELEMENT_THEORY = SGP/SGP4

EPOCH          = 2025-11-20T18:16:59.710944
MEAN_MOTION    = 12.44514112
ECCENTRICITY   = .0011217
INCLINATION    = 50.0100
RA_OF_ASC_NODE = 68.2962
ARG_OF_PERICENTER = 10.6500
MEAN_ANOMALY   = 161.2958

EPHEMERIS_TYPE = 0
CLASSIFICATION_TYPE = U
NORAD_CAT_ID   = 16908
ELEMENT_SET_NO = 999
REV_AT_EPOCH   = 45443
BSTAR          = -.95587E-4
MEAN_MOTION_DOT = -.111E-5
MEAN_MOTION_DDOT = 0

CCSDS_OMM_VERS = 2.0
CREATION_DATE  = 
ORIGINATOR     = 

OBJECT_NAME    = COSMOS 1812
OBJECT_ID      = 1987-003A
CENTER_NAME    = EARTH
REF_FRAME      = TEME
TIME_SYSTEM    = UTC
MEAN_ELEMENT_THEORY = SGP/SGP4

EPOCH          = 2025-11-20T11:08:56.247360
MEAN_MOTION    = 15.70832921
ECCENTRICITY   = .0006023
INCLINATION    = 82.4868
RA_OF_ASC_NODE = 316.0410
ARG_OF_PERICENTER = 121.5601
MEAN_ANOMALY   = 238.6250

EPHEMERIS_TYPE = 0
CLASSIFICATION_TYPE = U
NORAD_CAT_ID   = 17295
ELEMENT_SET_NO = 999
REV_AT_EPOCH   = 12715
BSTAR          = .59774E-3
MEAN_MOTION_DOT = .74843E-3
MEAN_MOTION_DDOT = 0

CCSDS_OMM_VERS = 2.0
CREATION_DATE  = 
ORIGINATOR     = 

OBJECT_NAME    = SL-14 R/B
OBJECT_ID      = 1987-024B
CENTER_NAME    = EARTH
REF_FRAME      = TEME
TIME_SYSTEM    = UTC
MEAN_ELEMENT_THEORY = SGP/SGP4

EPOCH          = 2025-11-20T15:01:16.064832
MEAN_MOTION    = 14.85993591
ECCENTRICITY   = .001673
INCLINATION    = 82.5293
RA_OF_ASC_NODE = 195.2263
ARG_OF_PERICENTER = 261.6576
MEAN_ANOMALY   = 98.2744

EPHEMERIS_TYPE = 0
CLASSIFICATION_TYPE = U
NORAD_CAT_ID   = 17567
ELEMENT_SET_NO = 999
REV_AT_EPOCH   = 7193
BSTAR          = .57115E-4
MEAN_MOTION_DOT = .524E-5
MEAN_MOTION_DDOT = 0

CCSDS_OMM_VERS = 2.0
CREATION_DATE  = 
ORIGINATOR     = 

OBJECT_NAME    = COSMOS 1833
OBJECT_ID      = 1987-027A
CENTER_NAME    = EARTH
REF_FRAME      = TEME
TIME_SYSTEM    = UTC
MEAN_ELEMENT_THEORY = SGP/SGP4

EPOCH          = 2025-11-20T08:20:45.296736
MEAN_MOTION    = 14.13018396
ECCENTRICITY   = .0021582
INCLINATION    = 70.9134
RA_OF_ASC_NODE = 195.8490
ARG_OF_PERICENTER = 3.2410
MEAN_ANOMALY   = 356.8847

EPHEMERIS_TYPE = 0
CLASSIFICATION_TYPE = U
NORAD_CAT_ID   = 17589
ELEMENT_SET_NO = 999
REV_AT_EPOCH   = 99486
BSTAR          = -.3301E-4
MEAN_MOTION_DOT = -.11E-5
MEAN_MOTION_DDOT = 0

CCSDS_OMM_VERS = 2.0
CREATION_DATE  = 
ORIGINATOR     = 

OBJECT_NAME    = SL-16 R/B
OBJECT_ID      = 1987-027B
CENTER_NAME    = EARTH
REF_FRAME      = TEME
TIME_SYSTEM    = UTC
MEAN_ELEMENT_THEORY = SGP/SGP4

EPOCH          = 2025-11-20T11:56:25.895616
MEAN_MOTION    = 14.17146929
ECCENTRICITY   = .0007254
INCLINATION    = 70.9999
RA_OF_ASC_NODE = 146.5862
ARG_OF_PERICENTER = 282.6074
MEAN_ANOMALY   = 77.4239

EPHEMERIS_TYPE = 0
CLASSIFICATION_TYPE = U
NORAD_CAT_ID   = 17590
ELEMENT_SET_NO = 999
REV_AT_EPOCH   = 99991
BSTAR          = -.1678E-4
MEAN_MOTION_DOT = -.82E-6
MEAN_MOTION_DDOT = 0

CCSDS_OMM_VERS = 2.0
CREATION_DATE  = 
ORIGINATOR     = 

OBJECT_NAME    = SL-14 R/B
OBJECT_ID      = 1987-038B
CENTER_NAME    = EARTH
REF_FRAME      = TEME
TIME_SYSTEM    = UTC
MEAN_ELEMENT_THEORY = SGP/SGP4

EPOCH          = 2025-11-20T15:10:23.934144
MEAN_MOTION    = 14.85231141
ECCENTRICITY   = .0019832
INCLINATION    = 82.5035
RA_OF_ASC_NODE = 39.5202
ARG_OF_PERICENTER = 161.0150
MEAN_ANOMALY   = 199.1810

EPHEMERIS_TYPE = 0
CLASSIFICATION_TYPE = U
NORAD_CAT_ID   = 17912
ELEMENT_SET_NO = 999
REV_AT_EPOCH   = 6304
BSTAR          = .65708E-4
MEAN_MOTION_DOT = .589E-5
MEAN_MOTION_DDOT = 0

CCSDS_OMM_VERS = 2.0
CREATION_DATE  = 
ORIGINATOR     = 

OBJECT_NAME    = COSMOS 1844
OBJECT_ID      = 1987-041A
CENTER_NAME    = EARTH
REF_FRAME      = TEME
TIME_SYSTEM    = UTC
MEAN_ELEMENT_THEORY = SGP/SGP4

EPOCH          = 2025-11-20T17:03:29.675232
MEAN_MOTION    = 14.14527131
ECCENTRICITY   = .0031188
INCLINATION    = 70.8995
RA_OF_ASC_NODE = 264.0317
ARG_OF_PERICENTER = 190.9375
MEAN_ANOMALY   = 169.1072

EPHEMERIS_TYPE = 0
CLASSIFICATION_TYPE = U
NORAD_CAT_ID   = 17973
ELEMENT_SET_NO = 999
REV_AT_EPOCH   = 98817
BSTAR          = .78651E-4
MEAN_MOTION_DOT = .103E-5
MEAN_MOTION_DDOT = 0

CCSDS_OMM_VERS = 2.0
CREATION_DATE  = 
ORIGINATOR     = 

OBJECT_NAME    = SL-14 R/B
OBJECT_ID      = 1987-055B
CENTER_NAME    = EARTH
REF_FRAME      = TEME
TIME_SYSTEM    = UTC
MEAN_ELEMENT_THEORY = SGP/SGP4

EPOCH          = 2025-11-20T18:18:19.242144
MEAN_MOTION    = 14.85487254
ECCENTRICITY   = .0021084
INCLINATION    = 82.4985
RA_OF_ASC_NODE = 91.6982
ARG_OF_PERICENTER = 17.6477
MEAN_ANOMALY   = 342.5466

EPHEMERIS_TYPE = 0
CLASSIFICATION_TYPE = U
NORAD_CAT_ID   = 18153
ELEMENT_SET_NO = 999
REV_AT_EPOCH   = 5376
BSTAR          = .66336E-4
MEAN_MOTION_DOT = .599E-5
MEAN_MOTION_DDOT = 0

CCSDS_OMM_VERS = 2.0
CREATION_DATE  = 
ORIGINATOR     = 

OBJECT_NAME    = COSMOS 1867
OBJECT_ID      = 1987-060A
CENTER_NAME    = EARTH
REF_FRAME      = TEME
TIME_SYSTEM    = UTC
MEAN_ELEMENT_THEORY = SGP/SGP4

EPOCH          = 2025-11-20T12:37:53.528736
MEAN_MOTION    = 14.31481148
ECCENTRICITY   = .0013684
INCLINATION    = 65.0102
RA_OF_ASC_NODE = 252.4072
ARG_OF_PERICENTER = 268.8853
MEAN_ANOMALY   = 91.0664

EPHEMERIS_TYPE = 0
CLASSIFICATION_TYPE = U
NORAD_CAT_ID   = 18187
ELEMENT_SET_NO = 999
REV_AT_EPOCH   = 431
BSTAR          = .37187E-4
MEAN_MOTION_DOT = -.1E-7
MEAN_MOTION_DDOT = 0

CCSDS_OMM_VERS = 2.0
CREATION_DATE  = 
ORIGINATOR     = 

OBJECT_NAME    = COSMOS 1892
OBJECT_ID      = 1987-088A
CENTER_NAME    = EARTH
REF_FRAME      = TEME
TIME_SYSTEM    = UTC
MEAN_ELEMENT_THEORY = SGP/SGP4

EPOCH          = 2025-11-20T16:39:04.123872
MEAN_MOTION    = 16.06938108
ECCENTRICITY   = .0005836
INCLINATION    = 82.4663
RA_OF_ASC_NODE = 68.6026
ARG_OF_PERICENTER = 270.9538
MEAN_ANOMALY   = 89.1075

EPHEMERIS_TYPE = 0
CLASSIFICATION_TYPE = U
NORAD_CAT_ID   = 18421
ELEMENT_SET_NO = 999
REV_AT_EPOCH   = 8778
BSTAR          = .6718E-3
MEAN_MOTION_DOT = .513941E-2
MEAN_MOTION_DDOT = .12665E-3

